{"type":"FeatureCollection","features":[{"type":"Feature","properties":{"source":"Survey of India, Outline of India"},"geometry":{"type":"MultiPolygon","coordinates":[[[[93.837425,7.240454],[93.94463,7.001403],[93.909879,6.999317],[93.941351,6.954343],[93.891475,6.901196],[93.897724,6.813464],[93.847207,6.83496],[93.822479,6.752783],[93.731709,6.921884],[93.737644,7.000004],[93.655027,7.005493],[93.643179,7.127276],[93.676326,7.193039],[93.837425,7.240454]]],[[[93.699471,7.447385],[93.743832,7.36145],[93.635808,7.242814],[93.619438,7.374257],[93.701804,7.393638],[93.699471,7.447385]]],[[[73.054023,8.273012],[73.017641,8.275332],[73.078288,8.323968],[73.054023,8.273012]]],[[[93.369455,8.023525],[93.45446,7.87244],[93.307867,7.933856],[93.319977,8.007379],[93.369455,8.023525]]],[[[93.540842,8.028453],[93.569419,7.928266],[93.494716,7.993241],[93.522077,8.026179],[93.543766,7.991361],[93.540842,8.028453]]],[[[93.51331,8.23506],[93.492791,8.146169],[93.540795,8.036139],[93.491088,7.998454],[93.521156,8.080384],[93.475749,8.0529],[93.437467,8.170381],[93.51331,8.23506]]],[[[93.117226,8.356505],[93.119724,8.272803],[93.190903,8.196116],[93.075843,8.27346],[93.117226,8.356505]]],[[[92.786029,9.245001],[92.827303,9.138837],[92.727316,9.124899],[92.71775,9.214556],[92.786029,9.245001]]],[[[92.51836,10.900837],[92.587148,10.788108],[92.598102,10.679175],[92.538515,10.614908],[92.569892,10.578791],[92.513264,10.510839],[92.38765,10.531532],[92.419118,10.615794],[92.373073,10.782743],[92.399086,10.744187],[92.51836,10.900837]]],[[[92.636208,11.515909],[92.684586,11.436075],[92.633716,11.403719],[92.690661,11.374528],[92.597654,11.345025],[92.636208,11.515909]]],[[[92.220113,11.59452],[92.26931,11.585211],[92.260122,11.517248],[92.210351,11.530813],[92.220113,11.59452]]],[[[92.540165,11.605032],[92.571576,11.587789],[92.526827,11.553699],[92.540165,11.605032]]],[[[92.964012,12.050091],[93.014784,12.027298],[93.044105,11.883717],[92.922951,11.998442],[92.964012,12.050091]]],[[[92.989967,12.109793],[92.994142,12.043684],[92.956439,12.073073],[92.989967,12.109793]]],[[[92.990746,12.158399],[93.00097,12.11097],[92.954248,12.135744],[92.990746,12.158399]]],[[[93.028429,12.166592],[93.043438,12.042645],[92.995348,12.13167],[93.028429,12.166592]]],[[[92.696266,12.238932],[92.709238,12.147806],[92.756701,12.175674],[92.696809,12.040206],[92.770437,11.997695],[92.721889,11.993081],[92.709686,11.820392],[92.654542,11.833318],[92.7058,11.792693],[92.749999,11.936562],[92.789977,11.88545],[92.754454,11.700649],[92.682224,11.714096],[92.707723,11.670509],[92.660142,11.652231],[92.686396,11.602994],[92.714375,11.678436],[92.755992,11.665047],[92.710227,11.477385],[92.616479,11.563441],[92.644701,11.635273],[92.597703,11.649087],[92.59129,11.738281],[92.558053,11.6923],[92.545018,11.843344],[92.505666,11.824517],[92.564066,11.950809],[92.610264,11.847305],[92.622046,12.101388],[92.696266,12.238932]]],[[[92.734833,12.239593],[92.762957,12.181771],[92.72247,12.188325],[92.734833,12.239593]]],[[[93.082311,12.078831],[93.035274,12.13209],[93.069131,12.212231],[93.082311,12.078831]]],[[[93.104336,12.264014],[93.100119,12.20042],[93.061809,12.233454],[93.104336,12.264014]]],[[[92.810471,12.312952],[92.872226,12.301706],[92.882862,12.197677],[92.802622,12.232645],[92.854837,12.16179],[92.801094,12.170585],[92.818113,12.11318],[92.763445,12.063224],[92.741137,12.245376],[92.810471,12.312952]]],[[[92.897492,12.926809],[92.98005,12.709395],[92.929729,12.616923],[92.968827,12.49666],[92.921783,12.465708],[92.914287,12.500025],[92.957837,12.472705],[92.910777,12.405389],[92.855146,12.509765],[92.815804,12.486809],[92.897161,12.415937],[92.795848,12.437884],[92.78661,12.483895],[92.833942,12.410485],[92.799131,12.400799],[92.898967,12.333759],[92.770435,12.333759],[92.752812,12.296095],[92.749178,12.365618],[92.719477,12.300342],[92.683985,12.60905],[92.773145,12.67039],[92.778927,12.579975],[92.789695,12.725466],[92.731955,12.672597],[92.722071,12.825228],[92.772699,12.842563],[92.783832,12.762146],[92.79079,12.889936],[92.85388,12.877112],[92.828405,12.810057],[92.897492,12.926809]]],[[[92.694815,12.991354],[92.71871,12.874835],[92.667279,12.782593],[92.694815,12.991354]]],[[[92.828532,13.210468],[92.850424,13.238625],[92.86312,13.184825],[92.870399,13.258305],[92.811096,13.270826],[92.842063,13.40965],[92.924766,13.390208],[92.874502,13.402068],[92.868868,13.473998],[92.924896,13.498924],[92.92037,13.455021],[92.913552,13.535098],[92.990568,13.517882],[92.982088,13.569439],[93.027329,13.5794],[93.036597,13.441286],[92.989088,13.427406],[93.068497,13.39663],[92.979629,13.379917],[93.031437,13.343897],[92.945405,13.351022],[92.996972,13.314894],[92.97386,13.281906],[93.065801,13.273782],[93.029892,13.067196],[92.959639,13.014228],[92.941223,13.145525],[92.922593,13.053489],[92.872991,13.149081],[92.912139,13.066793],[92.84359,13.050893],[92.915297,13.054917],[92.939243,12.968281],[92.910458,12.945305],[92.886055,13.007285],[92.870448,12.935303],[92.840011,12.949913],[92.872724,12.883524],[92.802117,12.898847],[92.828532,13.210468]]],[[[93.015487,13.676957],[93.019311,13.622085],[92.97132,13.649658],[93.015487,13.676957]]],[[[72.767596,21.657019],[72.812561,21.617999],[72.575195,21.532325],[72.626604,21.628827],[72.767596,21.657019]]],[[[88.508593,21.592162],[88.535561,21.527594],[88.484775,21.552198],[88.508593,21.592162]]],[[[88.834011,21.608037],[88.905988,21.54756],[88.831179,21.551169],[88.834011,21.608037]]],[[[88.538949,21.638932],[88.586978,21.605936],[88.555926,21.560348],[88.538949,21.638932]]],[[[88.30938,21.704861],[88.35142,21.677284],[88.317848,21.605219],[88.30938,21.704861]]],[[[88.749783,21.64962],[88.800048,21.591239],[88.715444,21.572464],[88.692511,21.720156],[88.749783,21.64962]]],[[[88.415156,21.725193],[88.396942,21.589934],[88.368761,21.726977],[88.415156,21.725193]]],[[[88.387685,21.762794],[88.357066,21.686461],[88.343672,21.75483],[88.387685,21.762794]]],[[[88.422176,21.810581],[88.47144,21.792466],[88.433995,21.603712],[88.383417,21.777691],[88.422176,21.810581]]],[[[88.579681,21.71738],[88.602671,21.61254],[88.526219,21.662866],[88.516172,21.787357],[88.570427,21.793182],[88.579681,21.71738]]],[[[88.148576,21.84973],[88.145076,21.638977],[88.062103,21.637399],[88.07681,21.77742],[88.148576,21.84973]]],[[[88.135872,21.933652],[88.130013,21.899131],[88.089857,21.926549],[88.135872,21.933652]]],[[[88.648588,21.91786],[88.644565,21.787938],[88.591973,21.797644],[88.648588,21.91786]]],[[[88.937311,21.914752],[89.031343,21.863962],[89.01946,21.766152],[89.093556,21.66368],[89.06072,21.615726],[89.02407,21.658217],[89.023782,21.602914],[88.938723,21.646142],[88.92084,21.762387],[88.940132,21.689042],[88.922967,21.632308],[88.891069,21.652395],[88.835057,21.782792],[88.819747,21.930606],[88.937311,21.914752]]],[[[69.628928,22.458852],[69.636498,22.405716],[69.590347,22.430724],[69.628928,22.458852]]],[[[74.711919,37.063795],[74.749424,37.019387],[74.838902,37.035843],[74.915579,36.920259],[75.015671,36.990723],[75.109152,36.961899],[75.210956,37.050017],[75.341314,37.060763],[75.463267,36.830313],[75.612724,36.77527],[75.807022,36.563424],[76.071154,36.484242],[76.266502,36.358843],[76.353927,36.369447],[76.480981,36.219735],[76.655924,36.192184],[76.813688,36.040629],[76.732136,35.954636],[76.80748,35.849746],[77.001004,35.77556],[77.11566,35.798105],[77.258345,35.70432],[77.365867,35.715187],[77.482764,35.529621],[77.332044,35.530346],[77.385239,35.47386],[77.685159,35.466824],[77.735866,35.521098],[77.985252,35.448303],[77.957808,35.604868],[78.136766,35.536568],[78.212049,35.666],[78.265612,35.647419],[78.27695,35.718374],[78.442672,35.783643],[78.534164,35.762513],[78.673311,35.854204],[78.969205,35.890169],[79.164673,35.838186],[79.230899,35.972164],[79.358031,35.991733],[79.410353,35.985977],[79.4402,35.894083],[79.751091,35.796919],[79.898959,35.775109],[80.015692,35.826164],[80.128897,35.656733],[80.311712,35.587956],[80.345084,35.461172],[80.065311,34.692858],[79.87826,34.674859],[79.776604,34.610384],[79.791439,34.466754],[79.522155,34.463622],[79.592139,34.23582],[79.493686,34.184681],[79.43745,34.012648],[79.172929,34.058292],[79.112651,34.008945],[79.001149,34.033608],[78.918317,33.963922],[79.060455,33.775835],[79.016106,33.702264],[79.100151,33.616324],[78.90286,33.622011],[78.978422,33.33641],[79.446113,33.257735],[79.380323,33.02767],[79.324903,33.012242],[79.609623,32.723228],[79.42929,32.523531],[79.305256,32.585823],[79.125045,32.465023],[79.09368,32.377134],[78.971185,32.335694],[78.806702,32.444248],[78.750697,32.692763],[78.605259,32.59109],[78.451283,32.577599],[78.407268,32.5261],[78.533505,32.41546],[78.46084,32.241708],[78.587952,32.236101],[78.617666,32.115225],[78.788552,31.993232],[78.709854,31.786615],[78.853342,31.607426],[78.728387,31.514767],[78.903769,31.258889],[79.061738,31.461347],[79.127423,31.434859],[79.42476,31.030492],[79.519035,31.026706],[79.603455,30.932655],[79.753008,31.007865],[79.862715,30.975357],[80.110908,30.779295],[80.177771,30.804055],[80.239664,30.762059],[80.197158,30.662092],[80.25776,30.558836],[80.539078,30.449197],[80.598009,30.478766],[80.821571,30.315558],[81.033208,30.24639],[81.043276,30.204559],[80.960047,30.178992],[80.902733,30.215381],[80.744555,30.003853],[80.601848,29.958127],[80.493857,29.795805],[80.365866,29.748415],[80.407939,29.595972],[80.24224,29.442876],[80.316881,29.315249],[80.297376,29.204926],[80.248797,29.221228],[80.272052,29.141296],[80.142868,29.099523],[80.058469,28.916626],[80.074819,28.824487],[80.256581,28.754252],[80.517624,28.55196],[80.503378,28.665143],[80.568657,28.688133],[80.915415,28.457637],[81.210597,28.360833],[81.318031,28.133672],[81.446684,28.161016],[81.478276,28.082713],[81.884958,27.856951],[81.968324,27.929121],[82.069961,27.923646],[82.44867,27.679315],[82.707653,27.722916],[82.735547,27.502352],[83.187948,27.454316],[83.317588,27.330164],[83.409342,27.412806],[83.388175,27.479755],[83.614253,27.469443],[83.863789,27.347008],[83.848293,27.446356],[84.026927,27.433541],[84.145857,27.518658],[84.292382,27.384812],[84.621893,27.336927],[84.691144,27.214822],[84.643394,27.046144],[84.96258,26.960527],[85.061197,26.886585],[85.02397,26.854377],[85.190842,26.869824],[85.212621,26.757998],[85.334511,26.741668],[85.634554,26.872212],[85.734479,26.795872],[85.73418,26.65076],[85.85126,26.608677],[85.849209,26.568998],[86.02758,26.666787],[86.217677,26.58848],[86.33289,26.619137],[86.731398,26.422616],[86.89423,26.461927],[87.071822,26.585814],[87.091651,26.450292],[87.341093,26.347519],[87.463772,26.439509],[87.610404,26.380777],[87.677558,26.435456],[87.76476,26.409882],[87.789515,26.469431],[87.848828,26.436463],[87.888294,26.48676],[88.00658,26.360996],[88.095603,26.439082],[88.187168,26.748678],[88.134404,26.98624],[87.98683,27.119036],[88.066928,27.335775],[88.044084,27.495811],[88.197172,27.791172],[88.119581,27.916005],[88.145214,27.964085],[88.399066,27.978037],[88.495619,28.053931],[88.550804,28.037572],[88.609961,28.128691],[88.836278,28.014815],[88.887674,27.85618],[88.848386,27.668008],[88.763767,27.56485],[88.806196,27.406797],[88.91926,27.320619],[88.746059,27.14426],[88.870047,27.109812],[88.877132,26.944359],[88.921684,26.993927],[88.943924,26.934147],[89.095699,26.891673],[89.134483,26.807639],[89.378982,26.862178],[89.649869,26.776739],[89.623779,26.718449],[89.863084,26.700561],[89.862917,26.737067],[90.194523,26.773271],[90.225199,26.854757],[90.357243,26.900709],[90.717278,26.768268],[91.05406,26.780985],[91.097563,26.821993],[91.337248,26.780861],[91.407647,26.839603],[91.495107,26.791206],[91.689797,26.806451],[91.891736,26.919063],[92.056725,26.847385],[92.120983,26.96036],[92.030517,27.080957],[92.037748,27.257444],[92.122816,27.287356],[92.01631,27.480772],[91.652452,27.483041],[91.562178,27.631853],[91.645068,27.769449],[91.55627,27.856206],[91.820676,27.815961],[91.927705,27.722594],[92.218661,27.869515],[92.27754,27.869093],[92.312773,27.788489],[92.503357,27.853951],[92.556211,27.824364],[92.742432,27.992587],[92.66654,28.063753],[92.687949,28.127398],[92.814765,28.211043],[92.836099,28.179097],[92.962706,28.258557],[92.997298,28.229428],[93.022343,28.310386],[93.217958,28.326081],[93.180451,28.434875],[93.277736,28.501309],[93.333363,28.639084],[93.496147,28.685967],[93.784145,28.663365],[93.850601,28.707036],[93.935629,28.666106],[94.007243,28.8407],[94.164458,28.957457],[94.224102,29.08783],[94.438122,29.223193],[94.550711,29.220751],[94.630976,29.341236],[94.804129,29.162405],[95.013578,29.130182],[94.992768,29.170764],[95.410654,29.030516],[95.48099,29.143074],[95.530717,29.130485],[95.58303,29.260614],[96.081248,29.461082],[96.235485,29.241892],[96.354305,29.292053],[96.380831,29.254608],[96.342012,29.178382],[96.102059,29.078995],[96.171475,28.999191],[96.160872,28.897834],[96.326906,29.028018],[96.513585,29.073958],[96.464674,28.983135],[96.608985,28.779832],[96.344755,28.554008],[96.362081,28.480344],[96.253406,28.407052],[96.395478,28.335917],[96.457128,28.413816],[96.641136,28.457785],[96.987612,28.303325],[97.105694,28.346958],[97.389559,28.206942],[97.310432,28.074517],[97.412515,28.008874],[97.37359,27.880177],[97.249021,27.899297],[96.896746,27.609261],[96.903244,27.452726],[97.163854,27.14224],[97.138518,27.091047],[96.874413,27.180682],[96.88474,27.259656],[96.704885,27.37204],[96.605309,27.365549],[96.523851,27.286546],[96.227995,27.278683],[96.022961,27.180082],[95.945956,27.051648],[95.80203,27.014501],[95.724141,26.882205],[95.666998,26.902862],[95.608489,26.812859],[95.528663,26.8253],[95.43138,26.700698],[95.302886,26.650823],[95.234231,26.682456],[95.148928,26.615867],[95.061999,26.449719],[95.132137,26.377841],[95.117869,26.101077],[95.185888,26.073099],[95.011774,25.897777],[95.048966,25.759355],[94.898504,25.565328],[94.683619,25.46643],[94.634602,25.395006],[94.57564,25.214124],[94.737006,25.134221],[94.713401,24.934371],[94.605118,24.712309],[94.549664,24.71277],[94.403076,24.475294],[94.153969,23.853152],[93.93046,23.95025],[93.807383,23.927075],[93.7542,24.005422],[93.623354,24.010919],[93.50476,23.942187],[93.407216,24.079702],[93.328548,24.081153],[93.436906,23.687041],[93.401647,23.383749],[93.355773,23.351892],[93.385613,23.133835],[93.293535,23.00644],[93.12673,23.043871],[93.164537,22.910494],[93.094718,22.806186],[93.140314,22.592265],[93.10655,22.527025],[93.18529,22.428153],[93.201945,22.263091],[93.142095,22.245464],[93.150827,22.17626],[93.03822,22.195028],[93.059576,22.101252],[93.004532,22.103593],[93.007414,21.982325],[92.952249,22.02971],[92.905614,21.940232],[92.863403,22.062674],[92.699764,22.155073],[92.679748,22.011553],[92.60322,21.977625],[92.5167,22.722169],[92.449236,22.895009],[92.371779,22.936171],[92.346785,23.235673],[92.40419,23.240657],[92.279095,23.716401],[92.216307,23.651937],[92.148724,23.735635],[92.063336,23.645015],[91.957021,23.733991],[91.970385,23.478283],[91.762409,23.302936],[91.8358,23.092986],[91.619383,22.938361],[91.542487,22.999457],[91.45421,23.260371],[91.408939,23.285194],[91.380768,23.208429],[91.415997,23.062645],[91.346959,23.102303],[91.320086,23.360088],[91.159675,23.611291],[91.156304,23.670717],[91.199422,23.646579],[91.208529,23.686401],[91.154243,23.688393],[91.157077,23.742018],[91.219028,23.736426],[91.254071,23.836984],[91.233019,23.926957],[91.276214,23.922525],[91.303641,23.997905],[91.379527,23.975326],[91.374611,24.10777],[91.586073,24.072601],[91.665159,24.233529],[91.688281,24.162085],[91.759373,24.141527],[91.745028,24.246975],[91.844707,24.225771],[91.902142,24.136877],[91.919989,24.337461],[91.995951,24.322054],[91.970453,24.384521],[92.090423,24.37162],[92.164583,24.418878],[92.154965,24.522969],[92.223801,24.517452],[92.296032,24.736456],[92.232873,24.900146],[92.299425,24.915721],[92.400096,24.848651],[92.487923,24.87131],[92.42535,25.029433],[92.073851,25.184948],[91.756031,25.177498],[91.637914,25.122545],[91.609735,25.177048],[91.471016,25.133587],[91.268013,25.207244],[90.733276,25.154911],[90.66342,25.197852],[90.441076,25.144508],[89.966655,25.303694],[89.838419,25.29317],[89.882505,25.617204],[89.816545,25.814302],[89.887077,25.945202],[89.825387,25.945504],[89.871032,25.980702],[89.773654,26.037637],[89.794851,26.087513],[89.681319,26.163586],[89.679117,26.238038],[89.63444,26.22941],[89.649325,26.16443],[89.591184,26.157292],[89.650088,26.063237],[89.605399,26.063753],[89.577865,25.969277],[89.423843,26.04692],[89.355389,26.008346],[89.155381,26.138611],[89.087409,26.397647],[88.955842,26.460208],[88.904789,26.408459],[88.995738,26.290238],[89.059467,26.293435],[89.050686,26.241653],[88.898269,26.288644],[88.841726,26.23072],[88.793564,26.30997],[88.666227,26.262657],[88.745301,26.347859],[88.702764,26.334394],[88.62289,26.471079],[88.560929,26.456463],[88.437157,26.544072],[88.398383,26.626],[88.331868,26.481806],[88.485246,26.460257],[88.523352,26.360824],[88.457723,26.37666],[88.349668,26.28225],[88.35051,26.220423],[88.177276,26.148057],[88.183208,26.026777],[88.08596,25.915983],[88.114477,25.797941],[88.269554,25.808177],[88.453815,25.664938],[88.444352,25.596922],[88.539953,25.508296],[88.699495,25.471194],[88.810893,25.522936],[88.840185,25.36376],[89.008898,25.303068],[89.007904,25.264904],[88.923076,25.164909],[88.843763,25.213807],[88.80586,25.170451],[88.443688,25.197297],[88.452658,25.036871],[88.398838,24.94532],[88.340904,24.940631],[88.330619,24.87014],[88.258266,24.87755],[88.226113,24.959706],[88.138044,24.936161],[88.175019,24.860151],[88.008756,24.667834],[88.333984,24.381393],[88.735439,24.276495],[88.746491,24.147065],[88.69319,24.111153],[88.768946,23.982197],[88.667586,23.869445],[88.575641,23.861552],[88.558208,23.649154],[88.741421,23.47968],[88.800787,23.497124],[88.745298,23.30782],[88.696361,23.30229],[88.718894,23.254798],[88.995725,23.2147],[88.868446,23.101068],[88.845086,23.009858],[88.968644,22.8443],[88.911005,22.757731],[88.962366,22.694972],[88.927114,22.649647],[88.995097,22.286265],[89.098546,22.153417],[89.037857,22.094214],[89.069001,21.932858],[88.997393,21.950249],[89.02906,22.001734],[88.968691,21.996194],[89.012501,21.90327],[88.945475,21.929299],[88.938173,22.01186],[88.904362,21.927891],[88.805749,21.938069],[88.821476,21.781443],[88.864695,21.761443],[88.845588,21.619103],[88.814594,21.710728],[88.762709,21.701972],[88.781147,21.825167],[88.756549,21.702973],[88.809933,21.704484],[88.807942,21.662677],[88.74479,21.660832],[88.69376,21.745308],[88.751465,22.006231],[88.67862,21.943095],[88.631698,22.011685],[88.571243,22.00044],[88.537173,21.856484],[88.511133,21.927562],[88.418049,21.902605],[88.483035,21.872033],[88.460397,21.79244],[88.417424,21.813156],[88.320802,21.708738],[88.282974,21.789456],[88.310292,21.58131],[88.253992,21.558352],[88.149754,21.956884],[88.214732,22.038594],[88.205309,22.164539],[88.070238,22.211206],[88.084606,22.256342],[88.060571,22.205771],[87.955932,22.269732],[88.189432,22.108081],[88.055693,22.020181],[87.8103,21.707376],[87.118502,21.517097],[86.8925,21.318429],[86.829353,21.208647],[86.847897,21.095503],[86.980877,20.857047],[86.944163,20.766478],[86.992482,20.770228],[87.000038,20.697837],[87.058248,20.716757],[86.77525,20.520753],[86.724381,20.393845],[86.798019,20.363396],[86.520438,20.170126],[86.407829,19.969436],[85.637033,19.725499],[85.322753,19.57038],[84.933311,19.278825],[84.126859,18.313366],[83.569374,18.011799],[83.212318,17.59074],[82.596259,17.282791],[82.319309,17.057849],[82.241444,16.908037],[82.354868,16.851241],[82.325386,16.986235],[82.359677,16.958321],[82.327685,16.685011],[82.365338,16.706654],[82.318874,16.576826],[82.312823,16.668012],[82.263085,16.563019],[82.313671,16.558735],[81.720788,16.30686],[81.487242,16.355066],[81.303012,16.302095],[81.213764,16.207218],[81.148045,15.973701],[80.937219,15.714404],[80.821516,15.709338],[80.80702,15.840446],[80.680607,15.8854],[80.428563,15.804682],[80.284161,15.687769],[80.084741,15.283335],[80.046979,15.078598],[80.097725,14.779548],[80.195513,14.585827],[80.133778,14.096908],[80.250644,13.796006],[80.237283,13.635962],[80.345269,13.279893],[80.157094,12.468251],[79.878975,12.054487],[79.760651,11.624373],[79.842599,11.350742],[79.880444,10.304685],[79.780093,10.27247],[79.748723,10.314377],[79.767664,10.271806],[79.3959,10.318635],[79.298461,10.263298],[79.219103,10.112599],[79.266112,10.039234],[79.111266,9.892838],[78.925152,9.585001],[78.900462,9.468296],[79.013095,9.332366],[79.184128,9.282809],[79.317994,9.325836],[79.435496,9.157793],[79.209198,9.282403],[78.978926,9.274852],[78.408705,9.111348],[78.186642,8.923591],[78.158081,8.796965],[78.198253,8.76108],[78.125639,8.665088],[78.130589,8.496909],[78.067425,8.373269],[77.744712,8.176916],[77.577113,8.136721],[77.550933,8.077962],[77.315797,8.121837],[77.011153,8.35474],[76.546731,8.903905],[76.330248,9.441248],[76.241204,9.967648],[75.73081,11.358325],[75.61678,11.476409],[75.508998,11.731132],[75.250333,12.008189],[75.201056,12.006089],[74.824427,12.849057],[74.60993,13.865552],[74.513982,13.986858],[74.355735,14.520861],[74.310217,14.521365],[74.249322,14.741184],[74.208433,14.717644],[74.118999,14.774252],[74.041042,14.995435],[73.912876,15.083574],[73.9565,15.135496],[73.87918,15.361899],[73.783688,15.4081],[73.689373,15.718006],[73.739421,15.734479],[73.649862,15.7449],[73.626086,15.851768],[73.456387,16.052792],[73.310871,16.541439],[73.355195,16.618951],[73.255368,17.027713],[73.289052,17.07441],[73.190639,17.299309],[73.258771,17.28603],[73.167295,17.404383],[73.198651,17.439086],[73.137102,17.555891],[73.133096,17.724417],[72.990376,18.055766],[72.980933,18.196286],[72.931778,18.22042],[72.938048,18.283722],[72.986481,18.282279],[72.915224,18.355138],[72.921158,18.550553],[72.860056,18.633513],[72.865807,18.807621],[72.945152,18.826382],[72.995943,18.773018],[72.995387,18.871511],[72.918348,18.855408],[72.959171,18.957162],[72.878243,19.021936],[72.80356,18.898815],[72.838631,19.046523],[72.778655,19.278925],[72.829951,19.334621],[72.744693,19.378036],[72.708144,19.703811],[72.641991,19.843982],[72.721976,19.970624],[72.756601,20.290163],[72.897986,20.584872],[72.780174,20.921151],[72.820366,20.9523],[72.754652,20.938659],[72.741188,21.074457],[72.619898,21.100748],[72.657354,21.224652],[72.601168,21.388624],[72.687302,21.452445],[72.579577,21.413856],[72.75,21.527519],[72.828457,21.650915],[72.962978,21.674035],[72.543552,21.660507],[72.623353,21.883751],[72.691265,21.882581],[72.748289,21.967463],[72.725223,21.996466],[72.545361,21.910989],[72.525894,21.959873],[72.580958,22.199155],[72.782685,22.157569],[72.849219,22.274948],[72.698956,22.199906],[72.543735,22.223072],[72.211669,21.962067],[72.24246,21.829811],[72.202824,21.819055],[72.306127,21.626009],[72.107842,21.302475],[72.112053,21.198631],[71.516654,20.948117],[71.439982,20.869521],[70.821791,20.691362],[70.43772,20.852899],[70.181353,21.036057],[69.615964,21.624552],[69.216552,21.957508],[68.935758,22.311826],[69.068116,22.481385],[69.035645,22.390194],[69.194736,22.421913],[69.155748,22.195135],[69.332726,22.327831],[69.655366,22.359565],[69.730691,22.484552],[69.79653,22.377739],[69.832823,22.447073],[69.870997,22.422967],[69.987662,22.510466],[70.120211,22.486351],[70.184725,22.522165],[70.278688,22.725272],[70.535149,22.912057],[70.43266,22.967062],[70.541659,22.959578],[70.561705,23.029],[70.767619,23.167032],[70.816075,23.164569],[70.828559,23.079915],[70.827562,23.157422],[70.959228,23.194815],[70.86292,23.192359],[70.893127,23.224703],[70.8331,23.249891],[70.578963,23.177709],[70.424761,23.237255],[70.30193,23.223689],[70.149295,23.036996],[70.210816,23.074633],[70.226406,22.951821],[70.121119,22.962632],[70.148207,23.034816],[69.962241,22.893588],[69.666122,22.797461],[69.418364,22.812795],[69.471758,22.773748],[69.195832,22.838026],[68.758589,23.080345],[68.783645,23.120012],[68.682776,23.152693],[68.669171,23.218199],[68.620987,23.205727],[68.72452,23.255135],[68.713515,23.317956],[68.660506,23.347454],[68.652336,23.303143],[68.483593,23.548708],[68.557189,23.716633],[68.648846,23.738902],[68.69271,23.844417],[68.420977,23.733209],[68.387239,23.594791],[68.278081,23.559729],[68.177864,23.614093],[68.20663,23.871961],[68.347685,23.974384],[68.753026,23.97131],[68.764704,24.295844],[68.80823,24.3136],[68.864821,24.21278],[68.945284,24.302493],[69.005328,24.22312],[69.094753,24.274494],[69.193754,24.236114],[69.594446,24.292398],[69.731214,24.171057],[70.025057,24.171285],[70.109868,24.294975],[70.561147,24.420882],[70.602469,24.408123],[70.57123,24.251735],[70.7139,24.215653],[70.907258,24.258779],[70.878666,24.301397],[71.119675,24.402487],[70.998565,24.444427],[70.986261,24.595464],[71.096379,24.688541],[70.937628,24.938558],[70.888671,25.148173],[70.664814,25.396883],[70.660074,25.702153],[70.387002,25.673832],[70.268652,25.7136],[70.099763,25.938263],[70.083387,26.083289],[70.175047,26.251528],[70.174176,26.551443],[70.056233,26.600569],[69.823119,26.589029],[69.51031,26.743504],[69.513313,27.009984],[69.586416,27.182647],[70.0259,27.56292],[70.132396,27.805956],[70.372192,28.011832],[70.58946,28.01044],[70.739768,27.741922],[70.871839,27.705598],[71.205535,27.835417],[71.666433,27.877756],[71.898344,27.96121],[71.927361,28.12174],[72.206131,28.394269],[72.299238,28.669754],[72.390703,28.770357],[72.94584,29.027948],[73.282097,29.572032],[73.396925,29.945998],[73.80656,30.068029],[73.972278,30.197853],[73.879776,30.359722],[73.973788,30.443824],[73.926259,30.43893],[73.934454,30.490277],[73.96413,30.456476],[74.012027,30.533592],[74.07228,30.52291],[74.096037,30.611607],[74.28646,30.735696],[74.260174,30.773095],[74.416405,30.940335],[74.54616,30.992416],[74.568234,31.054689],[74.695931,31.07416],[74.689103,31.128021],[74.603051,31.133601],[74.571269,31.081422],[74.510363,31.131901],[74.551653,31.364352],[74.65461,31.426008],[74.575213,31.501166],[74.6156,31.568983],[74.486596,31.714999],[74.607862,31.890386],[74.8191,31.958749],[74.87955,32.053797],[75.174243,32.067469],[75.202458,32.120237],[75.24028,32.091065],[75.372126,32.225382],[75.32267,32.343528],[75.189766,32.425806],[75.131421,32.408864],[75.101353,32.477695],[75.028023,32.497086],[74.951212,32.447488],[74.877281,32.492969],[74.687917,32.486874],[74.639046,32.614642],[74.695269,32.661313],[74.653498,32.696685],[74.704774,32.841948],[74.640522,32.818944],[74.634258,32.749541],[74.355048,32.766998],[73.964645,32.987124],[73.825663,33.004011],[73.790431,32.966809],[73.742831,33.066154],[73.637739,33.084645],[73.668009,33.201857],[73.565155,33.366251],[73.641773,33.528507],[73.567155,33.617736],[73.593546,33.88977],[73.516454,33.998826],[73.480836,34.289421],[73.396097,34.371608],[73.430807,34.521331],[73.453839,34.571064],[73.650264,34.561964],[73.729942,34.772222],[74.029916,34.876281],[74.133672,35.110048],[73.808328,35.239496],[73.707984,35.222484],[73.695439,35.36907],[73.792039,35.45422],[73.778505,35.522894],[73.628388,35.569045],[73.398124,35.557083],[73.132915,35.710777],[73.148664,35.831183],[73.083883,35.877463],[72.918442,35.839057],[72.819158,35.88172],[72.684384,35.822525],[72.512763,35.93643],[72.583525,36.017074],[72.51668,36.067335],[72.580717,36.252623],[72.684834,36.243883],[72.853666,36.366349],[72.859669,36.43556],[72.979359,36.45732],[73.097167,36.605994],[73.067646,36.700623],[73.421442,36.742983],[73.592714,36.692844],[73.871776,36.701401],[73.867989,36.766317],[73.70551,36.837812],[73.671093,36.911698],[73.914902,36.882983],[74.046521,36.810822],[74.15575,36.910508],[74.248971,36.893606],[74.426424,36.995693],[74.564101,36.957897],[74.568122,37.05176],[74.711919,37.063795]]]]}}]}
